OBJECT_NAME,OBJECT_ID,EPOCH,MEAN_MOTION,ECCENTRICITY,INCLINATION,RA_OF_ASC_NODE,ARG_OF_PERICENTER,MEAN_ANOMALY,EPHEMERIS_TYPE,CLASSIFICATION_TYPE,NORAD_CAT_ID,ELEMENT_SET_NO,REV_AT_EPOCH,BSTAR,MEAN_MOTION_DOT,MEAN_MOTION_DDOT
MONITOR-2 (RS39S),2023-091U,2026-06-27T22:03:07.558272,15.19006672,.00126727,97.5072,237.1325,78.6637,281.6020,0,U,57184,999,16558,.24760483E-3,.5123E-4,0
SVYATOBOR 1 (RS60S),2023-091X,2026-06-27T22:32:50.654688,15.26792093,.00104068,97.5091,242.8164,61.8873,298.3416,0,U,57187,999,16595,.34111561E-3,.8924E-4,0
HORS 1,2023-091Y,2026-06-27T22:10:55.410816,15.26903595,.00098683,97.5069,242.5620,62.0062,298.2174,0,U,57188,999,16595,.3593573E-3,.9436E-4,0
VIZARD-METEO (RS38S),2023-091Z,2026-06-27T23:03:18.528768,15.36360834,.00074154,97.5095,248.6632,43.9199,316.2633,0,U,57189,999,16634,.48228563E-3,.1705E-3,0
SITRO-AIS 6 (CHIRKIN),2023-091AC,2026-06-27T22:24:20.642400,15.26133917,.00127297,97.5069,241.9979,73.2681,286.9953,0,U,57192,999,16592,.40082792E-3,.10301E-3,0
SITRO-AIS 8 (ANOKHIN),2023-091AD,2026-06-27T22:16:04.438560,15.32419646,.00112329,97.5059,244.5629,66.4354,293.8066,0,U,57193,999,16609,.47477686E-3,.14823E-3,0
SITRO-AIS 7 (FARTUSHNIY),2023-091AE,2026-06-27T22:32:03.710976,15.25817246,.00126596,97.5066,241.8227,74.1818,286.0815,0,U,57194,999,16591,.38774344E-3,.9867E-4,0
AVION KALUGA 650,2023-091AF,2026-06-27T22:56:11.220288,15.20463819,.00117878,97.5090,238.4885,76.9162,283.3388,0,U,57195,999,16566,.25596655E-3,.5528E-4,0
HORS 2,2023-091AG,2026-06-27T22:35:28.092768,15.32156602,.00086067,97.5092,246.1185,55.1828,305.0222,0,U,57196,999,16617,.45836217E-3,.14177E-3,0
A-SEANSAT-PG1,2023-091AH,2026-06-27T22:44:45.722688,15.37322367,.00074649,97.5084,248.7603,51.9879,308.2038,0,U,57197,999,16636,.49644963E-3,.18109E-3,0
SITRO-AIS 10 (BURDAEV),2023-091AK,2026-06-27T21:55:55.658496,15.39004821,.00066013,97.5086,249.7144,46.8482,313.3314,0,U,57199,999,16641,.47877524E-3,.1844E-3,0
SITRO-AIS 9 (SHCHUKIN),2023-091AM,2026-06-27T22:38:55.278240,15.38508053,.00068661,97.5082,249.4663,46.9496,313.2322,0,U,57201,999,16640,.52918357E-3,.20068E-3,0
UTMN 2 (RS27S),2023-091AP,2026-06-27T23:13:04.489248,15.32308124,.00085367,97.5091,246.3389,50.8623,309.3376,0,U,57203,999,16619,.40045369E-3,.12432E-3,0
SITRO-AIS 12 (SMIRENNIY),2023-091AQ,2026-06-27T22:22:27.888672,15.38799722,.00063605,97.5096,249.9286,41.5099,318.6628,0,U,57204,999,16642,.49787273E-3,.19051E-3,0
SITRO-AIS 11 (SHEFFER),2023-091AU,2026-06-27T22:37:28.880832,15.39232143,.00062454,97.5094,250.1927,41.3509,318.8208,0,U,57208,999,16644,.52624401E-3,.20432E-3,0
H2SAT (HEINRICH HERTZ),2023-093A,2026-06-25T07:28:10.234848,1.00269986,.0000848,0.0482,107.4304,17.0766,261.6799,0,U,57213,999,1099,0,.11E-6,0
KUZGTU 1 (RS47S),2023-091AV,2026-06-27T22:57:11.685600,15.30102055,.00117974,97.5066,243.5469,64.5075,295.7385,0,U,57217,999,16602,.42058769E-3,.12206E-3,0
QIANKUN-1,2023-103B,2026-06-27T03:06:45.729216,16.07664039,.00350219,96.1495,222.2784,145.4250,214.9323,0,U,57422,999,16889,.37317592E-4,.32053E-3,.2105998E-5
FENGYUN 3F,2023-111A,2026-06-27T23:12:11.270304,14.19940799,.00015414,98.6834,248.7746,85.3444,274.7908,0,U,57490,999,15039,.43137543E-4,.48E-6,0
HJ-2F,2023-116A,2026-06-27T23:11:16.988640,15.22469568,.00086337,97.3838,183.9974,18.3668,341.7879,0,U,57519,999,16039,.35007299E-3,.8045E-4,0
XRISM,2023-137A,2026-06-27T16:24:20.189664,15.12552843,.0007809,31.0027,291.6076,69.4480,290.6997,0,U,57800,999,15445,.25251469E-3,.4613E-4,0
METEOR-M2 4,2024-039A,2026-06-27T22:41:53.776320,14.22430586,.00078482,98.7014,138.1087,132.1771,228.0075,0,U,59051,999,12079,.21026498E-4,.3E-7,0
GRBBETA,2024-128C,2026-06-27T23:18:57.517056,15.06701390,.00392571,61.9878,178.4272,136.8811,223.5368,0,U,60237,999,10789,.22328137E-3,.317E-4,0
TRANSPORTER-11 OBJECT A,2024-149A,2026-06-27T11:12:19.434240,15.33069755,.00037982,97.3737,258.3650,161.8629,198.2750,0,U,60468,999,10363,.28886317E-3,.9153E-4,0
WARATAH SEED-1,2024-149B,2026-06-27T19:04:19.323840,15.36203340,.00023749,97.3695,259.3800,154.0533,206.0831,0,U,60469,999,10374,.37507794E-3,.1316E-3,0
PHISAT 2,2024-149C,2026-06-27T23:04:20.006688,15.31201459,.00020982,97.3761,258.1180,153.0505,207.0845,0,U,60470,999,10364,.24043452E-3,.717E-4,0
LEMUR-2-TOMATOKECHUP,2024-149D,2026-06-27T18:58:13.997856,15.36245461,.00023356,97.3805,260.8648,155.5188,204.6167,0,U,60471,999,10379,.30756476E-3,.10788E-3,0
CONNECTA IOT-1,2024-149E,2026-06-27T16:04:37.138656,15.23617366,.0001171,97.3762,254.7842,183.5938,176.5291,0,U,60472,999,10339,.17344788E-3,.4083E-4,0
LOPEN,2024-149F,2026-06-27T18:54:31.864320,15.39984199,.00016929,97.3786,262.2400,165.2401,194.8895,0,U,60473,999,10389,.38118991E-3,.15128E-3,0
