MONITOR-2 (RS39S)       
1 57184U 23091U   26178.91883748  .00005123  00000+0  24760-3 0  9994
2 57184  97.5072 237.1325 0012672  78.6637 281.6020 15.19006672165586
SVYATOBOR 1 (RS60S)     
1 57187U 23091X   26178.93947517  .00008924  00000+0  34112-3 0  9998
2 57187  97.5091 242.8164 0010406  61.8873 298.3416 15.26792093165955
HORS 1                  
1 57188U 23091Y   26178.92425244  .00009436  00000+0  35936-3 0  9990
2 57188  97.5069 242.5620 0009868  62.0062 298.2174 15.26903595165959
VIZARD-METEO (RS38S)    
1 57189U 23091Z   26178.96063112  .00017050  00000+0  48229-3 0  9997
2 57189  97.5095 248.6632 0007415  43.9199 316.2633 15.36360834166343
SITRO-AIS 6 (CHIRKIN)   
1 57192U 23091AC  26178.93357225  .00010301  00000+0  40083-3 0  9991
2 57192  97.5069 241.9979 0012729  73.2681 286.9953 15.26133917165924
SITRO-AIS 8 (ANOKHIN)   
1 57193U 23091AD  26178.92782915  .00014823  00000+0  47478-3 0  9997
2 57193  97.5059 244.5629 0011232  66.4354 293.8066 15.32419646166098
SITRO-AIS 7 (FARTUSHNIY)
1 57194U 23091AE  26178.93893184  .00009867  00000+0  38774-3 0  9991
2 57194  97.5066 241.8227 0012659  74.1818 286.0815 15.25817246165912
AVION KALUGA 650        
1 57195U 23091AF  26178.95568542  .00005528  00000+0  25597-3 0  9990
2 57195  97.5090 238.4885 0011787  76.9162 283.3388 15.20463819165660
HORS 2                  
1 57196U 23091AG  26178.94129737  .00014177  00000+0  45836-3 0  9997
2 57196  97.5092 246.1185 0008606  55.1828 305.0222 15.32156602166174
A-SEANSAT-PG1           
1 57197U 23091AH  26178.94775142  .00018109  00000+0  49645-3 0  9996
2 57197  97.5084 248.7603 0007464  51.9879 308.2038 15.37322367166369
SITRO-AIS 10 (BURDAEV)  
1 57199U 23091AK  26178.91383864  .00018440  00000+0  47878-3 0  9995
2 57199  97.5086 249.7144 0006601  46.8482 313.3314 15.39004821166413
SITRO-AIS 9 (SHCHUKIN)  
1 57201U 23091AM  26178.94369535  .00020068  00000+0  52918-3 0  9991
2 57201  97.5082 249.4663 0006866  46.9496 313.2322 15.38508053166407
UTMN 2 (RS27S)          
1 57203U 23091AP  26178.96741307  .00012432  00000+0  40045-3 0  9990
2 57203  97.5091 246.3389 0008536  50.8623 309.3376 15.32308124166194
SITRO-AIS 12 (SMIRENNIY)
1 57204U 23091AQ  26178.93226723  .00019051  00000+0  49787-3 0  9994
2 57204  97.5096 249.9286 0006360  41.5099 318.6628 15.38799722166425
SITRO-AIS 11 (SHEFFER)  
1 57208U 23091AU  26178.94269538  .00020432  00000+0  52624-3 0  9999
2 57208  97.5094 250.1927 0006245  41.3509 318.8208 15.39232143166447
H2SAT (HEINRICH HERTZ)  
1 57213U 23093A   26176.31122957  .00000011  00000+0  00000+0 0  9997
2 57213   0.0482 107.4304 0000848  17.0766 261.6799  1.00269986 10990
KUZGTU 1 (RS47S)        
1 57217U 23091AV  26178.95638525  .00012206  00000+0  42059-3 0  9997
2 57217  97.5066 243.5469 0011797  64.5075 295.7385 15.30102055166028
QIANKUN-1               
1 57422U 23103B   26178.12969594  .00032053  21060-5  37318-4 0  9991
2 57422  96.1495 222.2784 0035021 145.4250 214.9323 16.07664039168893
FENGYUN 3F              
1 57490U 23111A   26178.96679711  .00000048  00000+0  43138-4 0  9997
2 57490  98.6834 248.7746 0001541  85.3444 274.7908 14.19940799150390
HJ-2F                   
1 57519U 23116A   26178.96616885  .00008045  00000+0  35007-3 0  9997
2 57519  97.3838 183.9974 0008633  18.3668 341.7879 15.22469568160396
XRISM                   
1 57800U 23137A   26178.68356701  .00004613  00000+0  25251-3 0  9997
2 57800  31.0027 291.6076 0007809  69.4480 290.6997 15.12552843154458
METEOR-M2 4             
1 59051U 24039A   26178.94576130  .00000003  00000+0  21026-4 0  9994
2 59051  98.7014 138.1087 0007848 132.1771 228.0075 14.22430586120796
GRBBETA                 
1 60237U 24128C   26178.97149904  .00003170  00000+0  22328-3 0  9992
2 60237  61.9878 178.4272 0039257 136.8811 223.5368 15.06701390107890
TRANSPORTER-11 OBJECT A 
1 60468U 24149A   26178.46689160  .00009153  00000+0  28886-3 0  9990
2 60468  97.3737 258.3650 0003798 161.8629 198.2750 15.33069755103630
WARATAH SEED-1          
1 60469U 24149B   26178.79466810  .00013160  00000+0  37508-3 0  9996
2 60469  97.3695 259.3800 0002374 154.0533 206.0831 15.36203340103742
PHISAT 2                
1 60470U 24149C   26178.96134267  .00007170  00000+0  24043-3 0  9999
2 60470  97.3761 258.1180 0002098 153.0505 207.0845 15.31201459103646
LEMUR-2-TOMATOKECHUP    
1 60471U 24149D   26178.79043979  .00010788  00000+0  30756-3 0  9997
2 60471  97.3805 260.8648 0002335 155.5188 204.6167 15.36245461103795
CONNECTA IOT-1          
1 60472U 24149E   26178.66987429  .00004083  00000+0  17345-3 0  9991
2 60472  97.3762 254.7842 0001171 183.5938 176.5291 15.23617366103391
LOPEN                   
1 60473U 24149F   26178.78786880  .00015128  00000+0  38119-3 0  9997
2 60473  97.3786 262.2400 0001692 165.2401 194.8895 15.39984199103898
